[{"CCSDS_OMM_VERS":"2.0","COMMENT":"GENERATED VIA SPACE-TRACK.ORG API","CREATION_DATE":"2022-12-27T02:19:36","ORIGINATOR":"18 SPCS","OBJECT_NAME":"GALILEO-FM2","OBJECT_ID":"2011-060B","CENTER_NAME":"EARTH","REF_FRAME":"TEME","TIME_SYSTEM":"UTC","MEAN_ELEMENT_THEORY":"SGP4","EPOCH":"2022-12-26T13:48:04.847904","MEAN_MOTION":"1.70475151","ECCENTRICITY":"0.00043750","INCLINATION":"57.0561","RA_OF_ASC_NODE":"16.1186","ARG_OF_PERICENTER":"307.7849","MEAN_ANOMALY":"51.7726","EPHEMERIS_TYPE":"0","CLASSIFICATION_TYPE":"U","NORAD_CAT_ID":"37847","ELEMENT_SET_NO":"999","REV_AT_EPOCH":"6949","BSTAR":"0.00000000000000","MEAN_MOTION_DOT":"-0.00000076","MEAN_MOTION_DDOT":"0.0000000000000","SEMIMAJOR_AXIS":"29600.187","PERIOD":"844.698","APOAPSIS":"23235.002","PERIAPSIS":"23209.102","OBJECT_TYPE":"PAYLOAD","RCS_SIZE":"LARGE","COUNTRY_CODE":"ESA","LAUNCH_DATE":"2011-10-21","SITE":"FRGUI","DECAY_DATE":null,"FILE":"3723236","GP_ID":"221515835","TLE_LINE0":"0 GALILEO-FM2","TLE_LINE1":"1 37847U 11060B   22360.57505611 -.00000076  00000-0  00000-0 0  9994","TLE_LINE2":"2 37847  57.0561  16.1186 0004375 307.7849  51.7726  1.70475151 69492"},{"CCSDS_OMM_VERS":"2.0","COMMENT":"GENERATED VIA SPACE-TRACK.ORG API","CREATION_DATE":"2022-12-26T23:16:13","ORIGINATOR":"18 SPCS","OBJECT_NAME":"GALILEO-FM2","OBJECT_ID":"2011-060B","CENTER_NAME":"EARTH","REF_FRAME":"TEME","TIME_SYSTEM":"UTC","MEAN_ELEMENT_THEORY":"SGP4","EPOCH":"2022-12-26T13:48:04.847904","MEAN_MOTION":"1.70475151","ECCENTRICITY":"0.00043750","INCLINATION":"57.0561","RA_OF_ASC_NODE":"16.1186","ARG_OF_PERICENTER":"307.7849","MEAN_ANOMALY":"51.7726","EPHEMERIS_TYPE":"0","CLASSIFICATION_TYPE":"U","NORAD_CAT_ID":"37847","ELEMENT_SET_NO":"999","REV_AT_EPOCH":"6962","BSTAR":"0.00000000000000","MEAN_MOTION_DOT":"-0.00000076","MEAN_MOTION_DDOT":"0.0000000000000","SEMIMAJOR_AXIS":"29600.187","PERIOD":"844.698","APOAPSIS":"23235.002","PERIAPSIS":"23209.102","OBJECT_TYPE":"PAYLOAD","RCS_SIZE":"LARGE","COUNTRY_CODE":"ESA","LAUNCH_DATE":"2011-10-21","SITE":"FRGUI","DECAY_DATE":null,"FILE":"3723063","GP_ID":"221498237","TLE_LINE0":"0 GALILEO-FM2","TLE_LINE1":"1 37847U 11060B   22360.57505611 -.00000076  00000-0  00000+0 0  9993","TLE_LINE2":"2 37847  57.0561  16.1186 0004375 307.7849  51.7726  1.70475151 69627"},{"CCSDS_OMM_VERS":"2.0","COMMENT":"GENERATED VIA SPACE-TRACK.ORG API","CREATION_DATE":"2022-12-29T17:48:15","ORIGINATOR":"18 SPCS","OBJECT_NAME":"GALILEO-FM2","OBJECT_ID":"2011-060B","CENTER_NAME":"EARTH","REF_FRAME":"TEME","TIME_SYSTEM":"UTC","MEAN_ELEMENT_THEORY":"SGP4","EPOCH":"2022-12-29T05:15:42.743808","MEAN_MOTION":"1.70475207","ECCENTRICITY":"0.00044440","INCLINATION":"57.0570","RA_OF_ASC_NODE":"16.0467","ARG_OF_PERICENTER":"308.6347","MEAN_ANOMALY":"233.7148","EPHEMERIS_TYPE":"0","CLASSIFICATION_TYPE":"U","NORAD_CAT_ID":"37847","ELEMENT_SET_NO":"999","REV_AT_EPOCH":"6954","BSTAR":"0.00000000000000","MEAN_MOTION_DOT":"-0.00000083","MEAN_MOTION_DDOT":"0.0000000000000","SEMIMAJOR_AXIS":"29600.180","PERIOD":"844.698","APOAPSIS":"23235.200","PERIAPSIS":"23208.891","OBJECT_TYPE":"PAYLOAD","RCS_SIZE":"LARGE","COUNTRY_CODE":"ESA","LAUNCH_DATE":"2011-10-21","SITE":"FRGUI","DECAY_DATE":null,"FILE":"3725790","GP_ID":"221729925","TLE_LINE0":"0 GALILEO-FM2","TLE_LINE1":"1 37847U 11060B   22363.21924472 -.00000083  00000-0  00000-0 0  9996","TLE_LINE2":"2 37847  57.0570  16.0467 0004444 308.6347 233.7148  1.70475207 69541"},{"CCSDS_OMM_VERS":"2.0","COMMENT":"GENERATED VIA SPACE-TRACK.ORG API","CREATION_DATE":"2022-12-29T16:06:13","ORIGINATOR":"18 SPCS","OBJECT_NAME":"GALILEO-FM2","OBJECT_ID":"2011-060B","CENTER_NAME":"EARTH","REF_FRAME":"TEME","TIME_SYSTEM":"UTC","MEAN_ELEMENT_THEORY":"SGP4","EPOCH":"2022-12-29T05:15:42.743808","MEAN_MOTION":"1.70475207","ECCENTRICITY":"0.00044440","INCLINATION":"57.0570","RA_OF_ASC_NODE":"16.0467","ARG_OF_PERICENTER":"308.6347","MEAN_ANOMALY":"233.7148","EPHEMERIS_TYPE":"0","CLASSIFICATION_TYPE":"U","NORAD_CAT_ID":"37847","ELEMENT_SET_NO":"999","REV_AT_EPOCH":"6966","BSTAR":"0.00000000000000","MEAN_MOTION_DOT":"-0.00000083","MEAN_MOTION_DDOT":"0.0000000000000","SEMIMAJOR_AXIS":"29600.180","PERIOD":"844.698","APOAPSIS":"23235.200","PERIAPSIS":"23208.891","OBJECT_TYPE":"PAYLOAD","RCS_SIZE":"LARGE","COUNTRY_CODE":"ESA","LAUNCH_DATE":"2011-10-21","SITE":"FRGUI","DECAY_DATE":null,"FILE":"3725683","GP_ID":"221712609","TLE_LINE0":"0 GALILEO-FM2","TLE_LINE1":"1 37847U 11060B   22363.21924472 -.00000083  00000-0  00000+0 0  9995","TLE_LINE2":"2 37847  57.0570  16.0467 0004444 308.6347 233.7148  1.70475207 69664"},{"CCSDS_OMM_VERS":"2.0","COMMENT":"GENERATED VIA SPACE-TRACK.ORG API","CREATION_DATE":"2022-12-31T18:47:40","ORIGINATOR":"18 SPCS","OBJECT_NAME":"GALILEO-FM2","OBJECT_ID":"2011-060B","CENTER_NAME":"EARTH","REF_FRAME":"TEME","TIME_SYSTEM":"UTC","MEAN_ELEMENT_THEORY":"SGP4","EPOCH":"2022-12-31T06:34:15.619296","MEAN_MOTION":"1.70475281","ECCENTRICITY":"0.00045400","INCLINATION":"57.0581","RA_OF_ASC_NODE":"15.9908","ARG_OF_PERICENTER":"309.6516","MEAN_ANOMALY":"53.6153","EPHEMERIS_TYPE":"0","CLASSIFICATION_TYPE":"U","NORAD_CAT_ID":"37847","ELEMENT_SET_NO":"999","REV_AT_EPOCH":"6958","BSTAR":"0.00000000000000","MEAN_MOTION_DOT":"-0.00000085","MEAN_MOTION_DDOT":"0.0000000000000","SEMIMAJOR_AXIS":"29600.172","PERIOD":"844.697","APOAPSIS":"23235.475","PERIAPSIS":"23208.598","OBJECT_TYPE":"PAYLOAD","RCS_SIZE":"LARGE","COUNTRY_CODE":"ESA","LAUNCH_DATE":"2011-10-21","SITE":"FRGUI","DECAY_DATE":null,"FILE":"3727988","GP_ID":"221827567","TLE_LINE0":"0 GALILEO-FM2","TLE_LINE1":"1 37847U 11060B   22365.27379189 -.00000085  00000-0  00000-0 0  9995","TLE_LINE2":"2 37847  57.0581  15.9908 0004540 309.6516  53.6153  1.70475281 69588"},{"CCSDS_OMM_VERS":"2.0","COMMENT":"GENERATED VIA SPACE-TRACK.ORG API","CREATION_DATE":"2022-12-31T16:26:13","ORIGINATOR":"18 SPCS","OBJECT_NAME":"GALILEO-FM2","OBJECT_ID":"2011-060B","CENTER_NAME":"EARTH","REF_FRAME":"TEME","TIME_SYSTEM":"UTC","MEAN_ELEMENT_THEORY":"SGP4","EPOCH":"2022-12-31T06:34:15.619296","MEAN_MOTION":"1.70475281","ECCENTRICITY":"0.00045400","INCLINATION":"57.0581","RA_OF_ASC_NODE":"15.9908","ARG_OF_PERICENTER":"309.6516","MEAN_ANOMALY":"53.6153","EPHEMERIS_TYPE":"0","CLASSIFICATION_TYPE":"U","NORAD_CAT_ID":"37847","ELEMENT_SET_NO":"999","REV_AT_EPOCH":"6970","BSTAR":"0.00000000000000","MEAN_MOTION_DOT":"-0.00000085","MEAN_MOTION_DDOT":"0.0000000000000","SEMIMAJOR_AXIS":"29600.172","PERIOD":"844.697","APOAPSIS":"23235.475","PERIAPSIS":"23208.598","OBJECT_TYPE":"PAYLOAD","RCS_SIZE":"LARGE","COUNTRY_CODE":"ESA","LAUNCH_DATE":"2011-10-21","SITE":"FRGUI","DECAY_DATE":null,"FILE":"3727859","GP_ID":"221809676","TLE_LINE0":"0 GALILEO-FM2","TLE_LINE1":"1 37847U 11060B   22365.27379189 -.00000085  00000-0  00000+0 0  9994","TLE_LINE2":"2 37847  57.0581  15.9908 0004540 309.6516  53.6153  1.70475281 69702"},{"CCSDS_OMM_VERS":"2.0","COMMENT":"GENERATED VIA SPACE-TRACK.ORG API","CREATION_DATE":"2023-01-03T00:46:15","ORIGINATOR":"18 SPCS","OBJECT_NAME":"GALILEO-FM2","OBJECT_ID":"2011-060B","CENTER_NAME":"EARTH","REF_FRAME":"TEME","TIME_SYSTEM":"UTC","MEAN_ELEMENT_THEORY":"SGP4","EPOCH":"2023-01-02T07:48:42.731712","MEAN_MOTION":"1.70475362","ECCENTRICITY":"0.00046310","INCLINATION":"57.0613","RA_OF_ASC_NODE":"15.9350","ARG_OF_PERICENTER":"310.8103","MEAN_ANOMALY":"231.6282","EPHEMERIS_TYPE":"0","CLASSIFICATION_TYPE":"U","NORAD_CAT_ID":"37847","ELEMENT_SET_NO":"999","REV_AT_EPOCH":"6973","BSTAR":"0.00000000000000","MEAN_MOTION_DOT":"-0.00000084","MEAN_MOTION_DDOT":"0.0000000000000","SEMIMAJOR_AXIS":"29600.162","PERIOD":"844.697","APOAPSIS":"23235.735","PERIAPSIS":"23208.320","OBJECT_TYPE":"PAYLOAD","RCS_SIZE":"LARGE","COUNTRY_CODE":"ESA","LAUNCH_DATE":"2011-10-21","SITE":"FRGUI","DECAY_DATE":null,"FILE":"3729746","GP_ID":"222038242","TLE_LINE0":"0 GALILEO-FM2","TLE_LINE1":"1 37847U 11060B   23002.32549458 -.00000084  00000-0  00000+0 0  9996","TLE_LINE2":"2 37847  57.0613  15.9350 0004631 310.8103 231.6282  1.70475362 69730"},{"CCSDS_OMM_VERS":"2.0","COMMENT":"GENERATED VIA SPACE-TRACK.ORG API","CREATION_DATE":"2023-01-04T03:14:03","ORIGINATOR":"18 SPCS","OBJECT_NAME":"GALILEO-FM2","OBJECT_ID":"2011-060B","CENTER_NAME":"EARTH","REF_FRAME":"TEME","TIME_SYSTEM":"UTC","MEAN_ELEMENT_THEORY":"SGP4","EPOCH":"2023-01-03T10:07:05.748384","MEAN_MOTION":"1.70475405","ECCENTRICITY":"0.00046060","INCLINATION":"57.0597","RA_OF_ASC_NODE":"15.9052","ARG_OF_PERICENTER":"310.2902","MEAN_ANOMALY":"184.8471","EPHEMERIS_TYPE":"0","CLASSIFICATION_TYPE":"U","NORAD_CAT_ID":"37847","ELEMENT_SET_NO":"999","REV_AT_EPOCH":"6963","BSTAR":"0.00000000000000","MEAN_MOTION_DOT":"-0.00000083","MEAN_MOTION_DDOT":"0.0000000000000","SEMIMAJOR_AXIS":"29600.157","PERIOD":"844.697","APOAPSIS":"23235.656","PERIAPSIS":"23208.389","OBJECT_TYPE":"PAYLOAD","RCS_SIZE":"LARGE","COUNTRY_CODE":"ESA","LAUNCH_DATE":"2011-10-21","SITE":"FRGUI","DECAY_DATE":null,"FILE":"3730926","GP_ID":"222104234","TLE_LINE0":"0 GALILEO-FM2","TLE_LINE1":"1 37847U 11060B   23003.42159431 -.00000083  00000-0  00000-0 0  9996","TLE_LINE2":"2 37847  57.0597  15.9052 0004606 310.2902 184.8471  1.70475405 69639"}]